[{"OBJECT_NAME":"STARLINK-34582","OBJECT_ID":"2025-147AC","EPOCH":"2026-03-09T17:57:58.023936","MEAN_MOTION":15.30200104,"ECCENTRICITY":9.203e-5,"INCLINATION":53.1591,"RA_OF_ASC_NODE":242.2635,"ARG_OF_PERICENTER":68.7864,"MEAN_ANOMALY":291.3235,"EPHEMERIS_TYPE":0,"CLASSIFICATION_TYPE":"U","NORAD_CAT_ID":64781,"ELEMENT_SET_NO":999,"REV_AT_EPOCH":3869,"BSTAR":0.00081938054,"MEAN_MOTION_DOT":0.00023987,"MEAN_MOTION_DDOT":0},{"OBJECT_NAME":"PUCP-SAT 1","OBJECT_ID":"2013-066AC","EPOCH":"2026-03-09T22:02:13.763904","MEAN_MOTION":15.29426022,"ECCENTRICITY":0.00136836,"INCLINATION":97.5787,"RA_OF_ASC_NODE":61.0032,"ARG_OF_PERICENTER":300.1183,"MEAN_ANOMALY":59.87,"EPHEMERIS_TYPE":0,"CLASSIFICATION_TYPE":"U","NORAD_CAT_ID":39442,"ELEMENT_SET_NO":999,"REV_AT_EPOCH":66907,"BSTAR":0.00088755185,"MEAN_MOTION_DOT":0.00025373,"MEAN_MOTION_DDOT":0}]
